OBJECT_NAME,OBJECT_ID,EPOCH,MEAN_MOTION,ECCENTRICITY,INCLINATION,RA_OF_ASC_NODE,ARG_OF_PERICENTER,MEAN_ANOMALY,EPHEMERIS_TYPE,CLASSIFICATION_TYPE,NORAD_CAT_ID,ELEMENT_SET_NO,REV_AT_EPOCH,BSTAR,MEAN_MOTION_DOT,MEAN_MOTION_DDOT
NUSAT-49 (KLARA DAN VON NEUMANN),2024-149AJ,2026-05-19T22:44:33.244800,15.29975559,.00033176,97.3777,221.4279,69.6030,290.5567,0,U,60500,999,9781,.22963966E-3,.6588E-4,0
FLOCK 4BE-11,2024-149AK,2026-05-19T23:06:22.916736,15.41956526,.00037767,97.3698,223.8100,41.7464,318.4070,0,U,60501,999,9800,.32459594E-3,.1374E-3,0
YAM-7,2024-149AN,2026-05-19T23:08:11.881824,15.31385697,.00044322,97.3783,220.3372,55.7234,304.4427,0,U,60504,999,9773,.18292529E-3,.5468E-4,0
FLOCK 4BE-24,2024-149AP,2026-05-19T18:07:19.769088,15.41913720,.00039698,97.3715,223.8486,50.8776,309.2824,0,U,60505,999,9798,.33894954E-3,.14332E-3,0
LUR-1,2024-149AQ,2026-05-19T11:09:42.525792,15.29688850,.00053015,97.3741,218.5100,61.7917,298.3859,0,U,60506,999,9758,.15196699E-3,.4296E-4,0
TANAGER-1,2024-149AR,2026-05-19T12:41:36.702528,15.44622433,.00056722,97.3130,233.7058,54.3469,305.8307,0,U,60507,999,9861,.1772537E-3,.8165E-4,0
EAGLEEYE,2024-149AS,2026-05-19T12:30:44.920800,15.65896026,.00013269,97.3729,231.3919,13.1482,346.9812,0,U,60508,999,9844,.63751664E-3,.65047E-3,0
FLOCK 4BE-29,2024-149AT,2026-05-19T04:52:45.413760,15.43107524,.00035013,97.3810,224.6630,67.2905,292.8712,0,U,60509,999,9794,.23791997E-3,.10439E-3,0
TRANSPORTER-11 OBJECT AU,2024-149AU,2026-05-19T11:08:03.439680,15.39344335,.00043154,97.3730,222.9744,53.4295,306.7348,0,U,60510,999,9789,.23169921E-3,.8967E-4,0
FLOCK 4BE-2,2024-149AV,2026-05-19T16:10:02.226432,15.49538043,.00029815,97.3821,226.2275,60.5105,299.6443,0,U,60511,999,9808,.7072061E-3,.39042E-3,0
FLOCK 4BE-13,2024-149AW,2026-05-19T04:53:05.667648,15.41038690,.0004177,97.3722,223.3329,34.9227,325.2293,0,U,60512,999,9790,.20757936E-3,.8487E-4,0
FLOCK 4BE-27,2024-149AX,2026-05-19T16:36:00.499680,15.33900087,.00049105,97.3825,221.5409,61.6165,298.5573,0,U,60513,999,9777,.19174648E-3,.6209E-4,0
FLOCK 4BE-9,2024-149AY,2026-05-19T23:03:57.693024,15.39871194,.00035676,97.3789,223.9791,67.0222,293.1400,0,U,60514,999,9797,.30640676E-3,.12096E-3,0
FLOCK 4BE-6,2024-149BA,2026-05-19T23:14:20.155776,15.38736585,.00042505,97.3787,223.3960,60.9253,299.2418,0,U,60516,999,9793,.30975414E-3,.11783E-3,0
FLOCK 4BE-14,2024-149BB,2026-05-19T04:43:51.866976,15.40019414,.00050779,97.3698,222.7330,58.1154,302.0586,0,U,60517,999,9786,.23658343E-3,.9365E-4,0
FLOCK 4BE-1,2024-149BC,2026-05-19T12:03:12.511296,15.41555437,.0004628,97.3779,224.2167,57.6878,302.4817,0,U,60518,999,9795,.3060091E-3,.12776E-3,0
FLOCK 4BE-28,2024-149BD,2026-05-19T11:51:27.146880,15.43821434,.00046344,97.3747,224.8450,51.4503,308.7160,0,U,60519,999,9801,.30538474E-3,.13758E-3,0
IPERDRONE.0,2024-149BE,2026-05-19T17:12:37.011456,15.62551119,.00010427,97.3781,231.6171,358.2916,1.8338,0,U,60520,999,9846,.54045165E-3,.4823E-3,0
TRANSPORTER-11 OBJECT BF,2024-149BF,2026-05-19T05:26:11.784192,15.73831356,.00013931,97.3784,233.1887,274.0718,86.0387,0,U,60521,999,9851,.69719974E-3,.99115E-3,0
CONNECTA IOT-2,2024-149BG,2026-05-19T22:39:08.333280,15.23705379,.000798,97.3841,218.5228,71.0360,289.1741,0,U,60522,999,9759,.12998828E-3,.3052E-4,0
PTD-R (TYVAK-0127),2024-149BH,2026-05-19T12:03:57.916224,15.89749172,.00019755,97.3784,237.6716,239.1441,120.9637,0,U,60523,999,9885,.55904888E-3,.163491E-2,.11751497E-4
CONNECTA IOT-4,2024-149BJ,2026-05-19T23:18:29.231424,15.41010548,.00056102,97.3796,224.0321,46.1353,314.0356,0,U,60524,999,9798,.37703217E-3,.15486E-3,0
ORESAT0.5,2024-149BK,2026-05-19T11:33:45.988128,15.43913772,.00055989,97.3722,225.0686,37.9349,322.2293,0,U,60525,999,9804,.27383842E-3,.12367E-3,0
DEIMOS,2024-149BL,2026-05-19T04:11:09.482784,15.43106692,.00058366,97.3783,224.9110,44.9596,315.2124,0,U,60526,999,9797,.26392783E-3,.11595E-3,0
CUAVA-2,2024-149BM,2026-05-19T16:11:49.955136,15.35397774,.00073877,97.3726,221.1614,46.7784,313.4075,0,U,60527,999,9779,.24681621E-3,.8413E-4,0
ERNST,2024-149BN,2026-05-19T11:49:07.316256,15.38382517,.00067786,97.3807,223.0152,51.5303,308.6550,0,U,60528,999,9786,.26440492E-3,.9932E-4,0
TORO,2024-149BQ,2026-05-19T14:51:53.036640,14.96305302,.00019003,97.6791,214.8219,95.9935,264.1504,0,U,60530,999,9568,.14616176E-3,.1595E-4,0
HYPSO-2,2024-149BR,2026-05-19T03:47:18.127680,14.98632558,.0002828,97.6827,215.8419,98.9165,261.2378,0,U,60531,999,9570,.17934197E-3,.2094E-4,0
LEMU NGE,2024-149BS,2026-05-19T11:16:08.378688,14.94816817,.00026122,97.6847,215.0114,105.6192,254.5317,0,U,60532,999,9566,.10726227E-3,.1111E-4,0
LEMUR-2-STELLA,2024-149BT,2026-05-19T22:41:47.086368,15.11120397,.00022281,97.6734,222.2928,115.2282,244.9178,0,U,60533,999,9623,.48336101E-3,.8037E-4,0
