NUSAT-49 (KLARA DAN VO*)
1 60500U 24149AJ  26139.94760700  .00006588  00000+0  22964-3 0  9997
2 60500  97.3777 221.4279 0003317  69.6030 290.5567 15.29975559 97814
FLOCK 4BE-11            
1 60501U 24149AK  26139.96276524  .00013740  00000+0  32460-3 0  9996
2 60501  97.3698 223.8100 0003776  41.7464 318.4070 15.41956526 98005
YAM-7                   
1 60504U 24149AN  26139.96402641  .00005468  00000+0  18293-3 0  9996
2 60504  97.3783 220.3372 0004432  55.7234 304.4427 15.31385697 97730
FLOCK 4BE-24            
1 60505U 24149AP  26139.75508992  .00014332  00000+0  33895-3 0  9995
2 60505  97.3715 223.8486 0003969  50.8776 309.2824 15.41913720 97987
LUR-1                   
1 60506U 24149AQ  26139.46507553  .00004296  00000+0  15197-3 0  9999
2 60506  97.3741 218.5100 0005301  61.7917 298.3859 15.29688850 97582
TANAGER-1               
1 60507U 24149AR  26139.52889702  .00008165  00000+0  17725-3 0  9994
2 60507  97.3130 233.7058 0005672  54.3469 305.8307 15.44622433 98616
EAGLEEYE                
1 60508U 24149AS  26139.52135325  .00065047  00000+0  63752-3 0  9993
2 60508  97.3729 231.3919 0001326  13.1482 346.9812 15.65896026 98443
FLOCK 4BE-29            
1 60509U 24149AT  26139.20330340  .00010439  00000+0  23792-3 0  9998
2 60509  97.3810 224.6630 0003501  67.2905 292.8712 15.43107524 97943
TRANSPORTER-11 OBJECT AU
1 60510U 24149AU  26139.46392870  .00008967  00000+0  23170-3 0  9997
2 60510  97.3730 222.9744 0004315  53.4295 306.7348 15.39344335 97898
FLOCK 4BE-2             
1 60511U 24149AV  26139.67363688  .00039042  00000+0  70721-3 0  9998
2 60511  97.3821 226.2275 0002981  60.5105 299.6443 15.49538043 98082
FLOCK 4BE-13            
1 60512U 24149AW  26139.20353782  .00008487  00000+0  20758-3 0  9996
2 60512  97.3722 223.3329 0004177  34.9227 325.2293 15.41038690 97904
FLOCK 4BE-27            
1 60513U 24149AX  26139.69167245  .00006209  00000+0  19175-3 0  9998
2 60513  97.3825 221.5409 0004910  61.6165 298.5573 15.33900087 97778
FLOCK 4BE-9             
1 60514U 24149AY  26139.96108441  .00012096  00000+0  30641-3 0  9994
2 60514  97.3789 223.9791 0003567  67.0222 293.1400 15.39871194 97973
FLOCK 4BE-6             
1 60516U 24149BA  26139.96828884  .00011783  00000+0  30975-3 0  9998
2 60516  97.3787 223.3960 0004250  60.9253 299.2418 15.38736585 97936
FLOCK 4BE-14            
1 60517U 24149BB  26139.19712809  .00009365  00000+0  23658-3 0  9996
2 60517  97.3698 222.7330 0005077  58.1154 302.0586 15.40019414 97868
FLOCK 4BE-1             
1 60518U 24149BC  26139.50222814  .00012776  00000+0  30601-3 0  9990
2 60518  97.3779 224.2167 0004628  57.6878 302.4817 15.41555437 97954
FLOCK 4BE-28            
1 60519U 24149BD  26139.49406420  .00013758  00000+0  30538-3 0  9996
2 60519  97.3747 224.8450 0004634  51.4503 308.7160 15.43821434 98018
IPERDRONE.0             
1 60520U 24149BE  26139.71709504  .00048230  00000+0  54045-3 0  9994
2 60520  97.3781 231.6171 0001042 358.2916   1.8338 15.62551119 98468
TRANSPORTER-11 OBJECT BF
1 60521U 24149BF  26139.22652528  .00099115  00000+0  69720-3 0  9998
2 60521  97.3784 233.1887 0001393 274.0718  86.0387 15.73831356 98518
CONNECTA IOT-2          
1 60522U 24149BG  26139.94384645  .00003052  00000+0  12999-3 0  9991
2 60522  97.3841 218.5228 0007980  71.0360 289.1741 15.23705379 97592
PTD-R (TYVAK-0127)      
1 60523U 24149BH  26139.50275366  .00163491  11751-4  55905-3 0  9991
2 60523  97.3784 237.6716 0001975 239.1441 120.9637 15.89749172 98855
CONNECTA IOT-4          
1 60524U 24149BJ  26139.97117166  .00015486  00000+0  37703-3 0  9992
2 60524  97.3796 224.0321 0005610  46.1353 314.0356 15.41010548 97982
ORESAT0.5               
1 60525U 24149BK  26139.48178227  .00012367  00000+0  27384-3 0  9993
2 60525  97.3722 225.0686 0005598  37.9349 322.2293 15.43913772 98047
DEIMOS                  
1 60526U 24149BL  26139.17441531  .00011595  00000+0  26393-3 0  9992
2 60526  97.3783 224.9110 0005836  44.9596 315.2124 15.43106692 97973
CUAVA-2                 
1 60527U 24149BM  26139.67488374  .00008413  00000+0  24682-3 0  9998
2 60527  97.3726 221.1614 0007387  46.7784 313.4075 15.35397774 97790
ERNST                   
1 60528U 24149BN  26139.49244579  .00009932  00000+0  26440-3 0  9997
2 60528  97.3807 223.0152 0006778  51.5303 308.6550 15.38382517 97867
TORO                    
1 60530U 24149BQ  26139.61936385  .00001595  00000+0  14616-3 0  9996
2 60530  97.6791 214.8219 0001900  95.9935 264.1504 14.96305302 95685
HYPSO-2                 
1 60531U 24149BR  26139.15784870  .00002094  00000+0  17934-3 0  9997
2 60531  97.6827 215.8419 0002828  98.9165 261.2378 14.98632558 95705
LEMU NGE                
1 60532U 24149BS  26139.46954142  .00001111  00000+0  10726-3 0  9994
2 60532  97.6847 215.0114 0002612 105.6192 254.5317 14.94816817 95660
LEMUR-2-STELLA          
1 60533U 24149BT  26139.94568387  .00008037  00000+0  48336-3 0  9992
2 60533  97.6734 222.2928 0002228 115.2282 244.9178 15.11120397 96232
